285P/LINEAR,e,25.0143,185.4760,178.4194,4.509372,0.1029271,0.61756261,219.8548,04/23.0/2019,2000,g 15.0,4.0
# From MPC 90771
286P/Christensen,e,17.0439,283.9605,24.6929,4.113519,0.1181364,0.42475218,228.1929,04/23.0/2019,2000,g 14.0,4.0
# From MPC 96868
287P/Christensen,e,16.3134,139.0317,188.7985,4.170650,0.1157173,0.26991845,182.4531,04/23.0/2019,2000,g 13.5,4.0
# From unp
288P/,e,3.2403,83.1875,280.8465,3.047179,0.1852922,0.20125044,166.0961,04/23.0/2019,2000,g 16.0,2.0
# From MPC102102
289P/Blanpain,e,5.8977,68.9265,9.8390,3.045365,0.1854577,0.68508257,315.1224,04/23.0/2019,2000,g 10.0,4.0
# From MPC 95214
290P/Jager,e,19.2080,303.2305,180.9589,6.130714,0.0649288,0.64777576,121.2673,04/23.0/2019,2000,g 10.5,4.0
# From MPC 89314
291P/NEAT,e,6.3775,238.3450,174.5942,4.486383,0.1037193,0.44055359,206.9821,04/23.0/2019,2000,g 13.0,4.0
# From MPC110085
292P/Li,e,24.2516,91.0038,319.5358,6.114086,0.0651939,0.58718020,124.4310,04/23.0/2019,2000,g 12.5,4.0
# From MPC 92278
293P/Spacewatch,e,9.0573,78.4089,41.1503,3.641374,0.1418424,0.41814269,273.9732,04/23.0/2019,2000,g 14.5,4.0
# From MPC 89013
294P/LINEAR,e,18.2140,312.6003,235.5250,3.205261,0.1717548,0.59426130,322.0916,04/23.0/2019,2000,g 15.5,4.0
# From MPC 93589
295P/LINEAR,e,21.0810,7.4660,73.0009,5.306901,0.0806200,0.61627620,145.8407,04/23.0/2019,2000,g 12.0,4.0
# From MPC 92278
296P/Garradd,e,25.2353,263.6419,350.0738,3.498117,0.1506443,0.47851379,282.5924,04/23.0/2019,2000,g 14.0,4.0
# From MPC102956
297P/Beshore,e,10.3284,97.6609,132.3983,3.444660,0.1541645,0.31949581,261.2592,04/23.0/2019,2000,g 15.0,4.0
# From MPC105243
298P/Christensen,e,7.8715,52.8310,100.7292,3.593217,0.1447035,0.38708537,287.2973,04/23.0/2019,2000,g 15.0,4.0
# From MPC101100
299P/Catalina-PANSTARRS,e,10.4778,271.6236,323.8531,4.381878,0.1074518,0.28255134,163.1276,04/23.0/2019,2000,g 11.5,4.0
# From MPC111774
300P/Catalina,e,5.6765,95.6705,222.8539,2.699663,0.2221978,0.69151935,38.2054,04/23.0/2019,2000,g 16.0,4.0
# From MPC 89014
301P/LINEAR-NEAT,e,10.3540,351.1786,193.7263,5.735484,0.0717545,0.58649378,121.6068,04/23.0/2019,2000,g 13.0,4.0
# From MPC108598
302P/Lemmon-PANSTARRS,e,6.0326,121.7538,208.1572,4.279062,0.1113477,0.22923396,121.1081,04/23.0/2019,2000,g 12.5,4.0
# From MPC 92278
303P/NEAT,e,7.0113,347.9794,356.8468,5.052201,0.0867927,0.50927754,143.4054,04/23.0/2019,2000,g 13.5,4.0
# From MPC 92987
304P/Ory,e,2.6180,59.0354,335.0617,3.156248,0.1757711,0.60193546,276.2087,04/23.0/2019,2000,g 16.5,4.0
# From MPC101100
305P/Skiff,e,11.6363,240.1487,147.2776,4.646520,0.0984039,0.69228598,159.4179,04/23.0/2019,2000,g 18.0,4.0
# From MPC 92278
306P/LINEAR,e,8.3109,341.4149,0.7965,3.121682,0.1786986,0.59338898,310.8843,04/23.0/2019,2000,g 19.0,4.0
# From MPC 91619
307P/LINEAR,e,4.4276,158.1017,222.2337,5.798654,0.0705851,0.67332445,111.9501,04/23.0/2019,2000,g 15.0,4.0
# From MPC109148
308P/Lagerkvist-Carsenty,e,4.8489,63.1318,333.7487,6.614208,0.0579412,0.36209214,83.9556,04/23.0/2019,2000,g 13.0,2.0
# From MPC 94284
309P/LINEAR,e,17.0427,10.2214,50.0036,4.368904,0.1079308,0.61811560,165.1759,04/23.0/2019,2000,g 15.0,4.0
# From MPC 98566
310P/Hill,e,13.1345,8.9470,31.9576,4.175761,0.1155049,0.42207607,169.7181,04/23.0/2019,2000,g 13.5,4.0
# From MPC109593
311P/PANSTARRS,e,4.9687,279.2279,144.2737,2.189566,0.3042055,0.11510450,197.9652,04/23.0/2019,2000,g 17.0,4.0
# From MPC 92279
312P/NEAT,e,19.7571,144.7562,207.5880,3.465712,0.1527620,0.42864861,280.3974,04/23.0/2019,2000,g 16.0,4.0
# From MPC111774
313P/Gibbs,e,10.9801,105.9720,254.4299,3.164577,0.1750776,0.23540486,297.4098,04/23.0/2019,2000,g 15.0,4.0
# From MPC105243
314P/Montani,e,3.9789,267.6226,214.2125,7.279847,0.0501788,0.41716219,46.4085,04/23.0/2019,2000,g  9.5,4.0
# From MPC111774
315P/LONEOS,e,17.9837,69.4687,66.1492,4.977772,0.0887466,0.52142893,76.9928,04/23.0/2019,2000,g 11.0,4.0
# From MPC 92279
316P/LONEOS-Christensen,e,9.9067,246.7677,193.6482,4.329824,0.1093953,0.16525260,138.4390,04/23.0/2019,2000,g 13.5,4.0
# From MPC102103
317P/WISE,e,11.9505,275.5194,334.8725,2.966436,0.1929086,0.57045712,259.2779,04/23.0/2019,2000,g 17.5,4.0
# From MPC102103
318P/McNaught-Hartley,e,17.8702,35.7024,313.0841,7.497127,0.0480133,0.67435882,61.3770,04/23.0/2019,2000,g  8.5,6.0
# From MPC 97499
319P/Catalina-McNaught,e,15.0925,111.3716,203.5915,3.570417,0.1460917,0.66605721,203.1524,04/23.0/2019,2000,g 15.0,4.0
# From MPC 95736
320P/McNaught,e,4.9079,295.9235,0.7440,3.095263,0.1809913,0.68551341,245.0360,04/23.0/2019,2000,g 20.5,4.0
# From MPEC 2017-L52
321P/SOHO,e,20.0341,165.0491,172.7173,2.422718,0.2613664,0.98104198,0.0000,01/17.2594/2020,2000,g 20.0,4.0
# From MPC102103
322P/SOHO,e,11.4694,351.5426,56.8639,2.509464,0.2479321,0.97979885,0.0000,08/31.5127/2019,2000,g 19.0,4.0
# From MPC102957
323P/SOHO,e,4.6932,322.9780,354.3430,2.583020,0.2374174,0.98476013,0.0000,01/17.9494/2021,2000,g 20.0,4.0
# From MPC108598
324P/La Sagra,e,21.4239,270.6428,58.2869,3.093602,0.1811371,0.15435487,224.7695,04/23.0/2019,2000,g 13.0,4.0
# From MPEC 2019-F55
325P/Yang-Gao,e,16.7035,257.5798,343.6643,3.524285,0.1489695,0.59399869,200.5208,04/23.0/2019,2000,g 14.0,4.0
# From MPC103849
326P/Hill,e,2.4707,99.8141,278.6483,4.066055,0.1202110,0.31679244,153.8091,04/23.0/2019,2000,g 13.5,4.0
# From MPC 97499
327P/Van Ness,e,36.2236,173.9620,185.0303,3.563881,0.1464938,0.56229226,179.9170,04/23.0/2019,2000,g 16.0,4.0
# From MPC109148
328P/LONEOS-Tucker,e,17.6567,341.6023,30.5261,4.198162,0.1145817,0.55092955,139.3731,04/23.0/2019,2000,g 14.5,4.0
# From MPC101101
329P/LINEAR-Catalina,e,21.6626,87.6876,343.6098,5.195607,0.0832242,0.67715805,103.0399,04/23.0/2019,2000,g 13.5,4.0
# From MPC105243
330P/Catalina,e,15.6705,293.1853,188.8460,6.636073,0.0576550,0.55103158,55.6541,04/23.0/2019,2000,g 12.0,4.0
# From MPC110497
331P/Gibbs,e,9.7401,216.7876,183.0656,3.004060,0.1892959,0.04038543,261.0991,04/23.0/2019,2000,g 12.0,4.0
# From MPEC 2016-K18
332P/Ikeya-Murakami,e,9.3840,3.7929,152.4198,3.086805,0.1817357,0.48967353,205.8012,04/23.0/2019,2000,g 18.0,4.0
# From MPC 99822
332P-A/Ikeya-Murakami,e,9.3840,3.7930,152.4197,3.086805,0.1817357,0.48967332,205.8012,04/23.0/2019,2000,g 18.0,4.0
# From MPEC 2016-EI8
332P-B/Ikeya-Murakami,e,9.3805,3.8028,152.3711,3.082329,0.1821317,0.48970701,359.9699,03/17.0/2016,2000,g 19.0,4.0
# From MPC 99822
332P-C/Ikeya-Murakami,e,9.3831,3.7933,152.4110,3.086771,0.1817387,0.48967826,205.8128,04/23.0/2019,2000,g 16.5,4.0
# From MPEC 2016-ED0
332P-D/Ikeya-Murakami,e,9.3761,3.7923,152.4393,3.081138,0.1822373,0.48977814,359.9486,03/17.0/2016,2000,g 19.0,4.0
# From MPEC 2016-ED0
332P-E/Ikeya-Murakami,e,9.3774,3.8228,152.2825,3.079877,0.1823493,0.48922008,359.9889,03/17.0/2016,2000,g 21.0,4.0
# From MPEC 2016-ED0
332P-F/Ikeya-Murakami,e,9.5293,3.4757,152.8203,3.163214,0.1751908,0.49918860,359.8501,03/17.0/2016,2000,g 21.0,4.0
# From MPEC 2016-ED0
332P-G/Ikeya-Murakami,e,9.2523,3.6955,154.4000,3.050519,0.1849880,0.49200362,359.9006,03/19.0/2016,2000,g 19.0,4.0
# From MPEC 2016-K18
332P-H/Ikeya-Murakami,e,9.3836,3.7931,152.4118,3.086955,0.1817225,0.48971400,205.7614,04/23.0/2019,2000,g 19.0,4.0
# From MPEC 2016-ED0
332P-I/Ikeya-Murakami,e,9.3791,3.8048,152.3297,3.081767,0.1821815,0.48955490,359.9360,03/17.0/2016,2000,g 20.5,2.0
# From MPEC 2016-EI8
332P-J/Ikeya-Murakami,e,9.4296,3.6729,152.7712,3.115165,0.1792596,0.49429435,359.8613,03/17.0/2016,2000,g 22.5,2.0
# From MPC104796
333P/LINEAR,e,131.8822,115.5814,26.1142,4.222614,0.1135879,0.73595746,126.6050,04/23.0/2019,2000,g 15.0,4.0
# From MPC111774
334P/NEAT,e,19.8059,91.3029,84.0157,6.732403,0.0564221,0.37395535,39.4617,04/23.0/2019,2000,g 10.5,4.0
# From MPC 10028
335P/Gibbs,e,7.2883,330.8437,162.2679,3.579224,0.1455529,0.54472501,184.1029,04/23.0/2019,2000,g 17.0,4.0
# From MPC105244
336P/McNaught,e,17.8347,298.2406,308.6172,5.026462,0.0874602,0.44614772,70.7235,04/23.0/2019,2000,g 13.5,4.0
# From MPC112394
337P/WISE,e,15.3719,106.0741,160.9397,3.288040,0.1653097,0.49696129,167.5039,04/23.0/2019,2000,g 17.0,4.0
# From MPC104796
338P/McNaught,e,25.3554,9.7940,4.4402,3.900481,0.1279460,0.41041857,112.8689,04/23.0/2019,2000,g 12.0,4.0
# From MPC101101
339P/Gibbs,e,5.7402,172.7691,27.5031,3.694012,0.1388214,0.63654351,139.2409,04/23.0/2019,2000,g 17.0,4.0
# From MPC102957
340P/Boattini,e,2.0793,291.7294,35.7590,4.252203,0.1124043,0.28012335,99.5179,04/23.0/2019,2000,g 13.0,4.0
# From MPC109148
341P/Gibbs,e,3.7934,30.0363,312.0809,4.296654,0.1106645,0.41435450,117.4278,04/23.0/2019,2000,g 12.5,4.0
# From MPC101101
342P/SOHO,e,12.9608,43.9586,57.4695,3.041802,0.1857837,0.98266000,0.0000,10/20.8291/2021,2000,g 20.0,4.0
# From MPC109148
343P/NEAT-LONEOS,e,5.5828,257.2521,137.4395,5.466691,0.0771112,0.58325638,62.8857,04/23.0/2019,2000,g 14.0,4.0
# From MPC109148
344P/Read,e,3.4902,273.1927,140.5150,4.871641,0.0916624,0.42117623,82.7974,04/23.0/2019,2000,g 13.0,4.0
# From MPC109148
345P/LINEAR,e,2.7252,154.4999,196.3827,4.042896,0.1212454,0.21982262,122.6552,04/23.0/2019,2000,g 12.0,4.0
# From MPC110086
346P/Catalina,e,22.1839,102.4765,336.0404,4.477219,0.1040379,0.50299651,82.8953,04/23.0/2019,2000,g 14.0,4.0
# From MPC108599
347P/PANSTARRS,e,11.7475,261.0532,98.3075,3.609187,0.1437441,0.38465852,137.0958,04/23.0/2019,2000,g 15.0,4.0
# From MPC104796
348P/PANSTARRS,e,17.6308,313.1183,134.6678,3.165800,0.1749762,0.30341794,180.4403,04/23.0/2019,2000,g 14.0,4.0
# From MPC112394
349P/Lemmon,e,5.4925,331.7622,255.9817,3.570264,0.1461011,0.29999989,88.3099,04/23.0/2019,2000,g 14.0,4.0
# From MPC111775
350P/McNaught,e,7.3651,65.4902,143.4770,4.114424,0.1180974,0.09070754,55.6765,04/23.0/2019,2000,g 14.0,4.0
# From MPC105244
351P/PANSTARRS,e,12.7896,283.4525,352.5242,4.435701,0.1055020,0.29627460,132.1070,04/23.0/2019,2000,g 12.5,4.0
# From MPC110086
352P/Skiff,e,21.0131,28.1468,309.0756,6.631066,0.0577204,0.61772079,38.6902,04/23.0/2019,2000,g 11.5,4.0
# From MPC108599
353P/McNaught,e,28.4179,121.5626,230.3876,4.171802,0.1156694,0.46941707,56.4509,04/23.0/2019,2000,g 14.5,4.0
